{
  "norad_id": 47357,
  "name": "STARLINK-2050",
  "history": [
    {
      "epoch": "2026-03-28T22:15:28.727712",
      "apogee_km": 476.2409222419019,
      "perigee_km": 474.1660048831545,
      "latitude_deg": -45.802838428956555,
      "longitude_deg": 84.73191967979074,
      "semi_major_axis_km": 6853.340463562528,
      "eccentricity": 0.00015138,
      "inclination_deg": 53.1608,
      "raan_deg": 333.0838,
      "arg_perigee_deg": 95.2969,
      "mean_anomaly_deg": 264.8204,
      "mean_motion_rev_day": 15.30203887
    },
    {
      "epoch": "2026-03-28T23:49:31.837440",
      "apogee_km": 476.1432700273408,
      "perigee_km": 474.2490087476135,
      "latitude_deg": 0.35221963526162037,
      "longitude_deg": 91.0020415999461,
      "semi_major_axis_km": 6853.333139387477,
      "eccentricity": 0.0001382,
      "inclination_deg": 53.1604,
      "raan_deg": 332.7802,
      "arg_perigee_deg": 97.444,
      "mean_anomaly_deg": 262.6717,
      "mean_motion_rev_day": 15.3020634
    }
  ]
}